STARLINK-1106
1 44923U 20001K   24101.27617875  .00013862  00000+0  55785-3 0  9998
2 44923  53.0255 206.9111 0003761 345.8703  14.2188 15.25169777235072
STARLINK-6244
1 56548U 23065AX  24101.25581667  .00002190  00000+0  17717-3 0  9999
2 56548  43.0044  58.3223 0001428 256.1388 103.9295 15.02525997 50634
STARLINK-2175
1 47757U 21017AM  24100.74719632  .00001414  00000+0  11383-3 0  9995
2 47757  53.0541 109.2909 0001457  94.6185 265.4971 15.06399464172371
STARLINK-5215
1 54759U 22175B   24100.84148310  .00000292  00000+0  36449-4 0  9995
2 54759  53.2176 296.5987 0001200  83.0436 277.0693 15.08834136 74485
STARLINK-4557
1 53432U 22097AW  24101.09856833  .00000459  00000+0  46903-4 0  9990
2 53432  53.2183 359.9821 0001458  84.0867 276.0291 15.08838117 92841
STARLINK-31498
1 59189U 24045M   24100.91667824  .00016152  00000+0  39331-3 0  9993
2 59189  42.9995 113.7733 0001445 265.5164 305.1176 15.40683697  5995
STARLINK-2376
1 47915U 21021BH  24101.53807029 -.00014192  00000+0 -11198-3 0  9995
2 47915  53.0531 143.6598 0001670 114.8242 245.2948 15.69809791170790
STARLINK-3613
1 51810U 22017AU  24100.63816335  .00000735  00000+0  64288-4 0  9995
2 51810  53.2236 227.5090 0000973  92.7374 267.3729 15.08836302118545
STARLINK-30880
1 58232U 23171C   24100.40763875  .00000768  00000+0  71919-4 0  9992
2 58232  43.0018 125.8395 0001146 275.7519  84.3193 15.02537650 24535
STARLINK-5911
1 55950U 23037AN  24101.39809504 -.00002957  00000+0 -24023-3 0  9993
2 55950  70.0015 225.1848 0002943 269.6012  90.4810 14.98309890 60215
STARLINK-5350
1 56419U 23061AX  24100.97848604 -.00002007  00000+0 -13350-3 0  9995
2 56419  43.0041  20.7829 0001644 279.4950  80.5707 15.02551228 52092
STARLINK-3592
1 51801U 22017AK  24101.38335011  .00001474  00000+0  11065-3 0  9990
2 51801  53.2239 243.9377 0000045 274.9090  85.1897 15.08833227118508
STARLINK-5044
1 53898U 22119N   24100.62568207  .00001363  00000+0  10370-3 0  9997
2 53898  53.2160 222.0580 0001983  93.2321 266.8898 15.08839827 85733
STARLINK-4554
1 53626U 22104AQ  24101.34419271  .00000106  00000+0  24728-4 0  9993
2 53626  53.2161 128.7562 0001541  93.6186 266.4982 15.08837544 89646
STARLINK-5883
1 55956U 23037AU  24101.43143682 -.00000055  00000+0  32044-5 0  9992
2 55956  69.9998 224.8975 0003026 271.5183  88.5630 14.98331183 60228
STARLINK-3847
1 52333U 22045C   24101.21957000  .00000219  00000+0  31872-4 0  9997
2 52333  53.2166 104.6749 0001480  90.8026 269.3136 15.08839130110189
STARLINK-31317
1 58931U 24027A   24100.88110652  .00032322  00000+0  11749-2 0  9994
2 58931  53.1559 314.3932 0001141  71.3296 288.7828 15.28008172 10194
STARLINK-2587
1 48399U 21038AY  24100.65044091  .00001657  00000+0  13010-3 0  9999
2 48399  53.0560 239.7224 0001592  92.0314 268.0857 15.06394591163154
STARLINK-30442
1 57868U 23144E   24101.11707658  .00001352  00000+0  11514-3 0  9996
2 57868  43.0029 123.5826 0000847 269.6505  90.4240 15.02539965 32473
STARLINK-2517
1 48309U 21036AK  24100.40072619  .00000489  00000+0  51694-4 0  9991
2 48309  53.0572 350.8476 0001524  90.9055 269.2109 15.06399163163362
STARLINK-1972
1 47627U 21012H   24100.75226099  .00001165  00000+0  97115-4 0  9998
2 47627  53.0539 234.2664 0000998  98.3215 261.7887 15.06393993175947
STARLINK-30110
1 57474U 23107T   24101.50462417  .00017204  00000+0  12502-2 0  9992
2 57474  43.0006 172.2408 0001078 345.3721  14.7090 15.03587161 39984
STARLINK-4711
1 53701U 22107B   24101.41317787  .00000876  00000+0  73085-4 0  9991
2 53701  53.2168 138.3946 0001422  90.3950 269.7205 15.08846028 88696
STARLINK-4166
1 53291U 22086BB  24101.22600060  .00000801  00000+0  68422-4 0  9996
2 53291  53.2170  74.4334 0001240  87.5388 272.5746 15.08835413 95657
STARLINK-2107
1 47723U 21017B   24101.50650552 -.00000671  00000+0 -26184-4 0  9990
2 47723  53.0578  25.8847 0001647  84.0405 276.0771 15.06392314172987
STARLINK-5374
1 56144U 23046BE  24101.00482796  .00001243  00000+0  10704-3 0  9993
2 56144  43.0054 342.2521 0001245 265.1140  94.9560 15.02539012 57652
STARLINK-4488
1 53534U 22101H   24100.92836028  .00000423  00000+0  44661-4 0  9994
2 53534  53.2178 330.7143 0001524  83.9005 276.2161 15.08839104 90683
STARLINK-4180
1 53278U 22086AN  24101.31939149  .00001050  00000+0  84093-4 0  9993
2 53278  53.2175  79.2273 0001987  90.6217 269.5003 15.08841992 95590
STARLINK-3706
1 52105U 22029T   24100.93072988  .00000825  00000+0  69950-4 0  9998
2 52105  53.2185 335.9677 0001322 101.9448 258.1692 15.08837460115297
STARLINK-5013
1 55492U 23015AV  24101.52586858  .00000657  00000+0  63703-4 0  9991
2 55492  43.0032 172.4655 0001199 276.0851  83.9854 15.02541092 65409
STARLINK-4623
1 55315U 23010AY  24101.41198204 -.00000471  00000+0 -31702-4 0  9992
2 55315  70.0012 345.0763 0002304 274.8052  85.2844 14.98324315 68371
STARLINK-3854
1 52648U 22052BC  24101.15241021  .00001865  00000+0  13523-3 0  9996
2 52648  53.2177 154.9769 0001623  92.3569 267.7609 15.08845778106051
STARLINK-5071
1 55402U 23014M   24101.51258220 -.00004077  00000+0 -33395-3 0  9994
2 55402  70.0024  24.8761 0002353 275.1016  84.9875 14.98344778 66530
STARLINK-5632
1 55400U 23014K   24101.17043202  .00000376  00000+0  39339-4 0  9997
2 55400  70.0009  25.6890 0002784 270.3942  89.6898 14.98333789 66487
STARLINK-6150
1 57119U 23090U   24101.39429381  .00000176  00000+0  28082-4 0  9991
2 57119  43.0034 108.8175 0001205 272.9866  87.0838 15.02533073 44233
STARLINK-5448
1 54770U 22175N   24101.23247729  .00001636  00000+0  12084-3 0  9997
2 54770  53.2179 284.7983 0001666  85.1236 274.9946 15.08842455 72526
STARLINK-3521
1 51742U 22016AE  24100.61331804 -.00000164  00000+0  77621-5 0  9992
2 51742  53.2169 217.5884 0001434  86.3843 273.7313 15.08837764118023
STARLINK-3133
1 49416U 21104J   24101.20670909 -.00000744  00000+0 -28652-4 0  9996
2 49416  53.2153 124.7294 0001600  91.6691 268.4484 15.08833014134280
STARLINK-5582
1 56777U 23078L   24101.30303980  .00000551  00000+0  54006-4 0  9995
2 56777  69.9985 305.5388 0002875 268.3924  91.6906 14.98330304 48321
STARLINK-3329
1 50827U 22001AA  24100.92517164 -.00000281  00000+0  41729-6 0  9999
2 50827  53.2165  65.9950 0001304  91.9484 268.1658 15.08838190124919
STARLINK-4737
1 53834U 22114S   24101.56960434 -.00001001  00000+0 -44830-4 0  9994
2 53834  53.2181 197.7756 0001736 106.3954 253.7229 15.08832620 86900
STARLINK-30453
1 57910U 23146V   24101.15966764  .00001713  00000+0  14181-3 0  9999
2 57910  43.0029 148.5752 0001312 273.1651  86.9041 15.02540357 31897
STARLINK-2422
1 47832U 21018AX  24101.39223228  .00004322  00000+0  30881-3 0  9998
2 47832  53.0525 146.3971 0001180  85.6490 274.4633 15.06406795171011
STARLINK-2086
1 47370U 21005X   24101.21071898  .00000024  00000+0  20532-4 0  9994
2 47370  53.0533 277.2094 0002527  85.0110 275.1167 15.06391591178335
STARLINK-30135
1 56842U 23079V   24101.54859681  .00004255  00000+0  32990-3 0  9991
2 56842  43.0012 300.9710 0001327 270.2410  89.8280 15.02531546 47532
STARLINK-1262
1 45366U 20019G   24101.19180421  .00001255  00000+0  10309-3 0  9998
2 45366  53.0557  62.2930 0001363  90.6960 269.4185 15.06407154224451
STARLINK-30256
1 57522U 23115B   24101.48770859 -.00000514  00000+0 -22990-4 0  9996
2 57522  43.0018 198.8202 0001374 269.0439  91.0246 15.02534758 38134
STARLINK-4148
1 53293U 22086BD  24101.18414807 -.00000159  00000+0  81198-5 0  9998
2 53293  53.2193  69.8211 0001519  91.6818 268.4348 15.08844078 95715
STARLINK-6366
1 57380U 23099BE  24100.92032618  .00000064  00000+0  19812-4 0  9998
2 57380  43.0054  46.8260 0001016 277.2577  82.8150 15.02535354 42184
STARLINK-6283
1 56406U 23061AJ  24100.80014320  .00000199  00000+0  29790-4 0  9997
2 56406  43.0030  22.0264 0000814 277.8250  82.2500 15.02537245 51774
STARLINK-30955
1 58417U 23180R   24101.11423900  .00000790  00000+0  73568-4 0  9995
2 58417  43.0016 251.6648 0001255 280.4902  79.5799 15.02538643 22503
STARLINK-5639
1 55365U 23013AL  24100.83286075  .00000561  00000+0  56609-4 0  9990
2 55365  43.0034 150.6759 0001096 276.5135  83.5582 15.02538154 66432
STARLINK-2247
1 48446U 21040U   24101.22543765  .00008132  00000+0  56383-3 0  9996
2 48446  53.0546  77.1436 0001424  87.4499 272.6653 15.06425642162635
STARLINK-31003
1 58520U 23191N   24100.89901879 -.00000246  00000+0 -31713-5 0  9997
2 58520  43.0004 303.1475 0001258 274.7847  85.2852 15.02532095 20320
STARLINK-3652
1 51991U 22025AM  24100.93713480 -.00000275  00000+0  83628-6 0  9995
2 51991  53.2171 295.9441 0001568  80.4740 279.6429 15.08836079115578
STARLINK-30816
1 58162U 23166N   24101.25001157  .00032906  00000+0  11963-2 0  9990
2 58162  53.1173 222.2555 0001891 113.5594  35.7326 15.27993479 26284
STARLINK-2417
1 48096U 21027E   24100.91674770 -.00000117  00000+0  11017-4 0  9990
2 48096  53.0543  68.5298 0001396  84.6462 275.4686 15.06395620167094
STARLINK-30414
1 57859U 23141V   24101.58335648  .02549649  00000+0  10698+0 0  9996
2 57859  53.1119 287.7833 0001019  73.3596 200.9948 15.19145150 33424
STARLINK-5571
1 55380U 23013BB  24100.75247191  .00000544  00000+0  55325-4 0  9999
2 55380  43.0023 124.9315 0001170 276.2014  83.8695 15.02535470 66723
STARLINK-3338
1 50812U 22001K   24101.13586435  .00001000  00000+0  80944-4 0  9993
2 50812  53.2182  55.1530 0001429  89.6834 270.4322 15.08837198126337
STARLINK-6122
1 56128U 23046AN  24100.97719810  .00000153  00000+0  26382-4 0  9999
2 56128  43.0040 342.9110 0001040 272.3678  87.7045 15.02536259 57107
STARLINK-2355
1 47895U 21021AM  24101.47516267  .00007103  00000+0  49503-3 0  9999
2 47895  53.0530 166.0218 0001102  69.7283 290.3824 15.06417277170482
STARLINK-3694
1 51957U 22025B   24101.51493407 -.00003088  00000+0 -19736-3 0  9998
2 51957  53.0490 288.8537 0002169  82.8758 277.2477 15.04745513116747
STARLINK-30344
1 57737U 23131F   24100.75726379 -.00000864  00000+0 -48859-4 0  9999
2 57737  43.0045   9.8425 0001204 258.4333 101.6374 15.02534739 34783
